{"type": "FeatureCollection", "features": [ {"type": "Feature", "properties": {"norad_id": 34472, "name": "COSMOS 2251 DEB", "group": "cosmos-2251-debris", "lat": 58.58214875549953, "lon": -129.01143325606887, "alt_km": 983.8671790073722, "timestamp": "2025-12-24T11:33:00.413085+00:00", "meta": {"OBJECT_NAME": "COSMOS 2251 DEB", "OBJECT_ID": "1993-036TR", "EPOCH": "2025-12-23T15:40:46.435008", "MEAN_MOTION": 13.70348923, "ECCENTRICITY": 0.03277595, "INCLINATION": 74.0847, "RA_OF_ASC_NODE": 80.196, "ARG_OF_PERICENTER": 208.8312, "MEAN_ANOMALY": 149.435, "EPHEMERIS_TYPE": 0, "CLASSIFICATION_TYPE": "U", "NORAD_CAT_ID": 34472, "ELEMENT_SET_NO": 999, "REV_AT_EPOCH": 83876, "BSTAR": 0.00065084955, "MEAN_MOTION_DOT": 8.17e-06, "MEAN_MOTION_DDOT": 0}, "tle": {"line1": "1 34472U 93036TR  25357.65331522  .00000817  00000+0  65085-3 0  9992", "line2": "2 34472  74.0847  80.1960 0327759 208.8312 149.4350 13.70348923838761"}}, "geometry": {"type": "Point", "coordinates": [-129.01143325606887, 58.58214875549953]}}, {"type": "Feature", "properties": {"norad_id": 34474, "name": "COSMOS 2251 DEB", "group": "cosmos-2251-debris", "lat": -20.1380873651237, "lon": -60.32859372828803, "alt_km": 760.5314368168647, "timestamp": "2025-12-24T11:33:00.413095+00:00", "meta": {"OBJECT_NAME": "COSMOS 2251 DEB", "OBJECT_ID": "1993-036TT", "EPOCH": "2025-12-24T03:11:05.033760", "MEAN_MOTION": 14.0650459, "ECCENTRICITY": 0.0199338, "INCLINATION": 74.0792, "RA_OF_ASC_NODE": 306.2877, "ARG_OF_PERICENTER": 17.3945, "MEAN_ANOMALY": 358.9115, "EPHEMERIS_TYPE": 0, "CLASSIFICATION_TYPE": "U", "NORAD_CAT_ID": 34474, "ELEMENT_SET_NO": 999, "REV_AT_EPOCH": 85669, "BSTAR": 0.002453, "MEAN_MOTION_DOT": 4.838e-05, "MEAN_MOTION_DDOT": 0}, "tle": {"line1": "1 34474U 93036TT  25358.13269715  .00004838  00000+0  24530-2 0  9998", "line2": "2 34474  74.0792 306.2877 0199338  17.3945 358.9115 14.06504590856698"}}, "geometry": {"type": "Point", "coordinates": [-60.32859372828803, -20.1380873651237]}}, {"type": "Feature", "properties": {"norad_id": 34476, "name": "COSMOS 2251 DEB", "group": "cosmos-2251-debris", "lat": 6.381554244293594, "lon": 64.55067714757149, "alt_km": 937.5851431928868, "timestamp": "2025-12-24T11:33:00.413106+00:00", "meta": {"OBJECT_NAME": "COSMOS 2251 DEB", "OBJECT_ID": "1993-036TV", "EPOCH": "2025-12-23T04:15:02.567520", "MEAN_MOTION": 13.82132648, "ECCENTRICITY": 0.03222242, "INCLINATION": 74.0063, "RA_OF_ASC_NODE": 64.9101, "ARG_OF_PERICENTER": 282.3311, "MEAN_ANOMALY": 74.192, "EPHEMERIS_TYPE": 0, "CLASSIFICATION_TYPE": "U", "NORAD_CAT_ID": 34476, "ELEMENT_SET_NO": 999, "REV_AT_EPOCH": 83782, "BSTAR": 0.0037798313, "MEAN_MOTION_DOT": 6.03e-05, "MEAN_MOTION_DDOT": 0}, "tle": {"line1": "1 34476U 93036TV  25357.17711305  .00006030  00000+0  37798-2 0  9996", "line2": "2 34476  74.0063  64.9101 0322224 282.3311  74.1920 13.82132648837821"}}, "geometry": {"type": "Point", "coordinates": [64.55067714757149, 6.381554244293594]}}, {"type": "Feature", "properties": {"norad_id": 34477, "name": "COSMOS 2251 DEB", "group": "cosmos-2251-debris", "lat": 3.390610648047178, "lon": -133.84979916886107, "alt_km": 674.3701992004189, "timestamp": "2025-12-24T11:33:00.413117+00:00", "meta": {"OBJECT_NAME": "COSMOS 2251 DEB", "OBJECT_ID": "1993-036TW", "EPOCH": "2025-12-24T02:37:15.120192", "MEAN_MOTION": 14.56938622, "ECCENTRICITY": 0.0076712, "INCLINATION": 73.9783, "RA_OF_ASC_NODE": 47.8344, "ARG_OF_PERICENTER": 232.8802, "MEAN_ANOMALY": 153.5903, "EPHEMERIS_TYPE": 0, "CLASSIFICATION_TYPE": "U", "NORAD_CAT_ID": 34477, "ELEMENT_SET_NO": 999, "REV_AT_EPOCH": 88791, "BSTAR": 0.00075411, "MEAN_MOTION_DOT": 3.494e-05, "MEAN_MOTION_DDOT": 0}, "tle": {"line1": "1 34477U 93036TW  25358.10920278  .00003494  00000+0  75411-3 0  9998", "line2": "2 34477  73.9783  47.8344 0076712 232.8802 153.5903 14.56938622887917"}}, "geometry": {"type": "Point", "coordinates": [-133.84979916886107, 3.390610648047178]}}, {"type": "Feature", "properties": {"norad_id": 34478, "name": "COSMOS 2251 DEB", "group": "cosmos-2251-debris", "lat": 66.54862246678093, "lon": 23.985592673875086, "alt_km": 546.6155319493782, "timestamp": "2025-12-24T11:33:00.413127+00:00", "meta": {"OBJECT_NAME": "COSMOS 2251 DEB", "OBJECT_ID": "1993-036TX", "EPOCH": "2025-12-23T17:58:35.156064", "MEAN_MOTION": 15.08914731, "ECCENTRICITY": 0.00336981, "INCLINATION": 74.0416, "RA_OF_ASC_NODE": 344.2204, "ARG_OF_PERICENTER": 201.8966, "MEAN_ANOMALY": 215.0748, "EPHEMERIS_TYPE": 0, "CLASSIFICATION_TYPE": "U", "NORAD_CAT_ID": 34478, "ELEMENT_SET_NO": 999, "REV_AT_EPOCH": 89139, "BSTAR": 0.0030597457, "MEAN_MOTION_DOT": 0.00049206, "MEAN_MOTION_DDOT": 0}, "tle": {"line1": "1 34478U 93036TX  25357.74901801  .00049206  00000+0  30597-2 0  9995", "line2": "2 34478  74.0416 344.2204 0033698 201.8966 215.0748 15.08914731891396"}}, "geometry": {"type": "Point", "coordinates": [23.985592673875086, 66.54862246678093]}}, {"type": "Feature", "properties": {"norad_id": 34481, "name": "COSMOS 2251 DEB", "group": "cosmos-2251-debris", "lat": 58.19150748880236, "lon": 59.5424761690635, "alt_km": 816.5776550219462, "timestamp": "2025-12-24T11:33:00.413137+00:00", "meta": {"OBJECT_NAME": "COSMOS 2251 DEB", "OBJECT_ID": "1993-036UA", "EPOCH": "2025-12-24T03:10:36.908832", "MEAN_MOTION": 14.32589508, "ECCENTRICITY": 0.0070278, "INCLINATION": 73.9789, "RA_OF_ASC_NODE": 32.5837, "ARG_OF_PERICENTER": 204.799, "MEAN_ANOMALY": 219.317, "EPHEMERIS_TYPE": 0, "CLASSIFICATION_TYPE": "U", "NORAD_CAT_ID": 34481, "ELEMENT_SET_NO": 999, "REV_AT_EPOCH": 87612, "BSTAR": 0.00056946, "MEAN_MOTION_DOT": 1.563e-05, "MEAN_MOTION_DDOT": 0}, "tle": {"line1": "1 34481U 93036UA  25358.13237163  .00001563  00000+0  56946-3 0  9997", "line2": "2 34481  73.9789  32.5837 0070278 204.7990 219.3170 14.32589508876120"}}, "geometry": {"type": "Point", "coordinates": [59.5424761690635, 58.19150748880236]}}, {"type": "Feature", "properties": {"norad_id": 34482, "name": "COSMOS 2251 DEB", "group": "cosmos-2251-debris", "lat": -15.187498543167859, "lon": -163.60256507647895, "alt_km": 664.8683416013291, "timestamp": "2025-12-24T11:33:00.413147+00:00", "meta": {"OBJECT_NAME": "COSMOS 2251 DEB", "OBJECT_ID": "1993-036UB", "EPOCH": "2025-12-24T00:44:32.909280", "MEAN_MOTION": 14.69389223, "ECCENTRICITY": 0.0044353, "INCLINATION": 74.036, "RA_OF_ASC_NODE": 201.7261, "ARG_OF_PERICENTER": 259.6603, "MEAN_ANOMALY": 223.0217, "EPHEMERIS_TYPE": 0, "CLASSIFICATION_TYPE": "U", "NORAD_CAT_ID": 34482, "ELEMENT_SET_NO": 999, "REV_AT_EPOCH": 88353, "BSTAR": 0.0016982, "MEAN_MOTION_DOT": 0.00010179, "MEAN_MOTION_DDOT": 0}, "tle": {"line1": "1 34482U 93036UB  25358.03093645  .00010179  00000+0  16982-2 0  9990", "line2": "2 34482  74.0360 201.7261 0044353 259.6603 223.0217 14.69389223883533"}}, "geometry": {"type": "Point", "coordinates": [-163.60256507647895, -15.187498543167859]}}, {"type": "Feature", "properties": {"norad_id": 34544, "name": "COSMOS 2251 DEB", "group": "cosmos-2251-debris", "lat": 61.442630658809705, "lon": -142.96155363735056, "alt_km": 1279.2711229506203, "timestamp": "2025-12-24T11:33:00.413158+00:00", "meta": {"OBJECT_NAME": "COSMOS 2251 DEB", "OBJECT_ID": "1993-036UE", "EPOCH": "2025-12-22T13:17:43.726848", "MEAN_MOTION": 13.54671118, "ECCENTRICITY": 0.03836445, "INCLINATION": 73.9138, "RA_OF_ASC_NODE": 188.1407, "ARG_OF_PERICENTER": 214.797, "MEAN_ANOMALY": 178.3987, "EPHEMERIS_TYPE": 0, "CLASSIFICATION_TYPE": "U", "NORAD_CAT_ID": 34544, "ELEMENT_SET_NO": 999, "REV_AT_EPOCH": 83015, "BSTAR": 0.00039748277, "MEAN_MOTION_DOT": 4.13e-06, "MEAN_MOTION_DDOT": 0}, "tle": {"line1": "1 34544U 93036UE  25356.55397832  .00000413  00000+0  39748-3 0  9995", "line2": "2 34544  73.9138 188.1407 0383644 214.7970 178.3987 13.54671118830157"}}, "geometry": {"type": "Point", "coordinates": [-142.96155363735056, 61.442630658809705]}}, {"type": "Feature", "properties": {"norad_id": 34546, "name": "COSMOS 2251 DEB", "group": "cosmos-2251-debris", "lat": -65.36885560655713, "lon": 85.94616246589538, "alt_km": 737.0170213095516, "timestamp": "2025-12-24T11:33:00.413172+00:00", "meta": {"OBJECT_NAME": "COSMOS 2251 DEB", "OBJECT_ID": "1993-036UG", "EPOCH": "2025-12-24T02:48:03.140928", "MEAN_MOTION": 14.45454884, "ECCENTRICITY": 0.0022069, "INCLINATION": 74.0293, "RA_OF_ASC_NODE": 227.9723, "ARG_OF_PERICENTER": 300.46, "MEAN_ANOMALY": 214.4673, "EPHEMERIS_TYPE": 0, "CLASSIFICATION_TYPE": "U", "NORAD_CAT_ID": 34546, "ELEMENT_SET_NO": 999, "REV_AT_EPOCH": 88190, "BSTAR": 0.00049621, "MEAN_MOTION_DOT": 1.726e-05, "MEAN_MOTION_DDOT": 0}, "tle": {"line1": "1 34546U 93036UG  25358.11670302  .00001726  00000+0  49621-3 0  9996", "line2": "2 34546  74.0293 227.9723 0022069 300.4600 214.4673 14.45454884881903"}}, "geometry": {"type": "Point", "coordinates": [85.94616246589538, -65.36885560655713]}}, {"type": "Feature", "properties": {"norad_id": 34547, "name": "COSMOS 2251 DEB", "group": "cosmos-2251-debris", "lat": 36.81110358960282, "lon": -114.51024158984309, "alt_km": 638.7680070275501, "timestamp": "2025-12-24T11:33:00.413183+00:00", "meta": {"OBJECT_NAME": "COSMOS 2251 DEB", "OBJECT_ID": "1993-036UH", "EPOCH": "2025-12-23T12:05:02.097600", "MEAN_MOTION": 14.72566413, "ECCENTRICITY": 0.00162583, "INCLINATION": 74.0313, "RA_OF_ASC_NODE": 79.7674, "ARG_OF_PERICENTER": 157.405, "MEAN_ANOMALY": 202.7841, "EPHEMERIS_TYPE": 0, "CLASSIFICATION_TYPE": "U", "NORAD_CAT_ID": 34547, "ELEMENT_SET_NO": 999, "REV_AT_EPOCH": 88680, "BSTAR": 0.0018043313, "MEAN_MOTION_DOT": 0.00011487, "MEAN_MOTION_DDOT": 0}, "tle": {"line1": "1 34547U 93036UH  25357.50349650  .00011487  00000+0  18043-2 0  9996", "line2": "2 34547  74.0313  79.7674 0016258 157.4050 202.7841 14.72566413886800"}}, "geometry": {"type": "Point", "coordinates": [-114.51024158984309, 36.81110358960282]}}]}